GALAXY 3C (G-3C)        
1 27445U 02030A   26159.38432053 -.00000137  00000+0  00000+0 0  9998
2 27445   3.7072  78.0941 0001798  31.3144 190.8728  1.00271437 46407
INTELSAT 906 (IS-906)   
1 27513U 02041A   26159.85915186  .00000029  00000+0  00000+0 0  9990
2 27513   5.7826  73.0225 0004655 358.6548 198.9897  1.00271237 86947
NIMIQ 2                 
1 27632U 02062A   26159.62658890 -.00000056  00000+0  00000+0 0  9997
2 27632   9.4258  56.9898 0005678  17.4325 298.9696  1.00271904 44093
USA 167                 
1 27691U 03008A   26159.45668010  .00000015  00000+0  00000+0 0  9993
2 27691  10.9434  43.4851 0003844 314.9000 301.1420  1.00273848  6683
USA 169 (MILSTAR-2 4)   
1 27711U 03012A   26159.56524689 -.00000219  00000+0  00000+0 0  9993
2 27711  12.3360  29.9096 0100975   8.8615 213.7965  1.00270463 32865
ASIASAT 4               
1 27718U 03014A   26159.61657573 -.00000206  00000+0  00000+0 0  9993
2 27718   4.6835  75.8521 0002925   4.2295 186.4298  1.00272496 45212
HELLAS-SAT 2            
1 27811U 03020A   26159.07891816 -.00000070  00000+0  00000+0 0  9993
2 27811   7.3316  67.9930 0003504   8.1981 198.6843  1.00271511 42759
THURAYA-2               
1 27825U 03026A   26159.78125000  .00000137  00000+0  00000+0 0  9990
2 27825   8.8257  32.0302 0003153   6.3511 184.0331  1.00273078 84262
OPTUS C1                
1 27831U 03028B   26159.57706480 -.00000136  00000+0  00000+0 0  9993
2 27831   6.8672  69.5133 0005718   7.3338 183.5675  1.00273783 52973
USA 170                 
1 27875U 03040A   26159.70521910  .00000139  00000+0  00000+0 0  9995
2 27875  10.4816  48.0271 0002109  39.9999  87.2606  1.00277661 32917
GALAXY 13 (HORIZONS-1)  
1 27954U 03044A   26159.74177779  .00000149  00000+0  00000+0 0  9992
2 27954   1.3984  83.9612 0002096 349.5613 300.6341  1.00273429 46488
YAMAL 202               
1 28089U 03053A   26159.58995525 -.00000065  00000+0  00000+0 0  9999
2 28089   6.3225  71.0410 0003342 353.2483 208.6669  1.00273032 82612
UFO 11 (USA 174)        
1 28117U 03057A   26159.75972898 -.00000093  00000+0  00000+0 0  9993
2 28117   8.9350  33.8729 0002550  44.5000 167.8303  1.00274079 82360
USA 176 (DSP 22)        
1 28158U 04004A   26159.47620266 -.00000284  00000+0  00000+0 0  9991
2 28158  12.0500  26.1327 0001101 299.7638  50.9550  1.00408226 32846
ABS-4 (MOBISAT-1)       
1 28184U 04007A   26159.85692257  .00000055  00000+0  00000+0 0  9999
2 28184   6.0215  72.1080 0005162   3.1892 191.3837  1.00271458 52258
INTELSAT 10-02          
1 28358U 04022A   26159.77127936  .00000004  00000+0  00000+0 0  9991
2 28358   0.0135 337.4063 0000802 189.2107   7.1926  1.00264008 80476
ANIK F2                 
1 28378U 04027A   26159.62766222 -.00000034  00000+0  00000+0 0  9993
2 28378   3.2638  79.5611 0004312   3.1543 289.1319  1.00271810 41173
AMC-15                  
1 28446U 04041A   26159.67941338 -.00000073  00000+0  00000+0 0  9996
2 28446   0.0308 302.7846 0002310 139.6092 314.2175  1.00272067 79210
NSS-10                  
1 28526U 05003A   26159.27822536 -.00000237  00000+0  00000+0 0  9990
2 28526   6.4263  70.5612 0002980   6.6219 242.2038  1.00271631 53066
INMARSAT 4-F1           
1 28628U 05009A   26159.79327278  .00000047  00000+0  00000+0 0  9997
2 28628   5.1558  42.7387 0002707  38.2720 279.8694  1.00271982 77583
DIRECTV 8               
1 28659U 05019A   26159.63029051  .00000017  00000+0  00000+0 0  9990
2 28659   0.0177   6.4882 0002963  74.8027 283.5844  1.00271578 76988
GALAXY 28 (G-28)        
1 28702U 05022A   26159.76616602 -.00000184  00000+0  00000+0 0  9997
2 28702   3.2779  79.0339 0002827 354.2539  72.5774  1.00272427 51890
THAICOM 4               
1 28786U 05028A   26159.79517286 -.00000346  00000+0  00000+0 0  9996
2 28786   0.2227  86.0312 0001877 350.1273 226.7892  1.00270022 52164
ANIK F1R                
1 28868U 05036A   26159.67898005 -.00000060  00000+0  00000+0 0  9997
2 28868   4.2899  76.6849 0004292   5.1172 312.4243  1.00272538 46365
SYRACUSE 3A             
1 28885U 05041B   26159.78072898  .00000145  00000+0  00000+0 0  9991
2 28885   4.6223  75.9400 0003106 339.9806 168.9397  1.00271289 75660
INMARSAT 4-F2           
1 28899U 05044A   26159.58603185 -.00000246  00000+0  00000+0 0  9999
2 28899   5.0825  43.7036 0003033  34.3540 173.3775  1.00272240 75439
METEOSAT-9 (MSG-2)      
1 28912U 05049B   26159.78055565  .00000137  00000+0  00000+0 0  9993
2 28912   9.3415  54.2486 0001700 350.9221 178.6781  1.00268863  6913
EUTELSAT 174A           
1 28924U 05052A   26159.59203527  .00000024  00000+0  00000+0 0  9997
2 28924   4.1968  76.6319 0006359   1.4418 206.0255  1.00269812 52240
ECHOSTAR 10             
1 28935U 06003A   26159.67837338 -.00000039  00000+0  00000+0 0  9995
2 28935   0.0176 359.3201 0002023  46.3609 345.4254  1.00271359 74377
SPAINSAT                
1 28945U 06007A   26159.37075313 -.00000201  00000+0  00000+0 0  9995
2 28945   0.5393  86.6919 0004897 349.4500 283.9215  1.00272417 74131
JCSAT-5A                
1 29045U 06010A   26159.79759954 -.00000311  00000+0  00000+0 0  9999
2 29045   1.0867  84.3166 0002079  12.0947 219.9478  1.00269731 73686
ASTRA 1KR               
1 29055U 06012A   26159.70397359  .00000135  00000+0  00000+0 0  9993
2 29055   0.4509  83.2046 0003493 352.9476  93.3683  1.00272552 45611
