OBJECT_NAME,OBJECT_ID,EPOCH,MEAN_MOTION,ECCENTRICITY,INCLINATION,RA_OF_ASC_NODE,ARG_OF_PERICENTER,MEAN_ANOMALY,EPHEMERIS_TYPE,CLASSIFICATION_TYPE,NORAD_CAT_ID,ELEMENT_SET_NO,REV_AT_EPOCH,BSTAR,MEAN_MOTION_DOT,MEAN_MOTION_DDOT
GALAXY 3C (G-3C),2002-030A,2026-06-08T09:13:25.293792,1.00271437,.00017988,3.7072,78.0941,31.3144,190.8728,0,U,27445,999,4640,0,-.137E-5,0
INTELSAT 906 (IS-906),2002-041A,2026-06-08T20:37:10.720704,1.00271237,.0004655,5.7826,73.0225,358.6548,198.9897,0,U,27513,999,8694,0,.29E-6,0
NIMIQ 2,2002-062A,2026-06-08T15:02:17.280960,1.00271904,.0005678,9.4258,56.9898,17.4325,298.9696,0,U,27632,999,4409,0,-.56E-6,0
USA 167,2003-008A,2026-06-08T10:57:37.160640,1.00273848,.00038441,10.9434,43.4851,314.9000,301.1420,0,U,27691,999,668,0,.15E-6,0
USA 169 (MILSTAR-2 4),2003-012A,2026-06-08T13:33:57.331296,1.00270463,.0100975,12.3360,29.9096,8.8615,213.7965,0,U,27711,999,3286,0,-.219E-5,0
ASIASAT 4,2003-014A,2026-06-08T14:47:52.143072,1.00272496,.0002925,4.6835,75.8521,4.2295,186.4298,0,U,27718,999,4521,0,-.206E-5,0
HELLAS-SAT 2,2003-020A,2026-06-08T01:53:38.529024,1.00271511,.00035045,7.3316,67.9930,8.1981,198.6843,0,U,27811,999,4275,0,-.7E-6,0
THURAYA-2,2003-026A,2026-06-08T18:45:00.000000,1.00273078,.0003153,8.8257,32.0302,6.3511,184.0331,0,U,27825,999,8426,0,.137E-5,0
OPTUS C1,2003-028B,2026-06-08T13:50:58.398720,1.00273783,.0005718,6.8672,69.5133,7.3338,183.5675,0,U,27831,999,5297,0,-.136E-5,0
USA 170,2003-040A,2026-06-08T16:55:30.930240,1.00277661,.0002109,10.4816,48.0271,39.9999,87.2606,0,U,27875,999,3291,0,.139E-5,0
GALAXY 13 (HORIZONS-1),2003-044A,2026-06-08T17:48:09.601056,1.00273429,.0002096,1.3984,83.9612,349.5613,300.6341,0,U,27954,999,4648,0,.149E-5,0
YAMAL 202,2003-053A,2026-06-08T14:09:32.133600,1.00273032,.00033428,6.3225,71.0410,353.2483,208.6669,0,U,28089,999,8261,0,-.65E-6,0
UFO 11 (USA 174),2003-057A,2026-06-08T18:14:00.583872,1.00274079,.000255,8.9350,33.8729,44.5000,167.8303,0,U,28117,999,8236,0,-.93E-6,0
USA 176 (DSP 22),2004-004A,2026-06-08T11:25:43.909824,1.00408226,.00011011,12.0500,26.1327,299.7638,50.9550,0,U,28158,999,3284,0,-.284E-5,0
ABS-4 (MOBISAT-1),2004-007A,2026-06-08T20:33:58.110048,1.00271458,.0005162,6.0215,72.1080,3.1892,191.3837,0,U,28184,999,5225,0,.55E-6,0
INTELSAT 10-02,2004-022A,2026-06-08T18:30:38.536704,1.00264008,.0000802,0.0135,337.4063,189.2107,7.1926,0,U,28358,999,8047,0,.4E-7,0
ANIK F2,2004-027A,2026-06-08T15:03:50.015808,1.00271810,.0004312,3.2638,79.5611,3.1543,289.1319,0,U,28378,999,4117,0,-.34E-6,0
AMC-15,2004-041A,2026-06-08T16:18:21.316032,1.00272067,.000231,0.0308,302.7846,139.6092,314.2175,0,U,28446,999,7921,0,-.73E-6,0
NSS-10,2005-003A,2026-06-08T06:40:38.671104,1.00271631,.00029806,6.4263,70.5612,6.6219,242.2038,0,U,28526,999,5306,0,-.237E-5,0
INMARSAT 4-F1,2005-009A,2026-06-08T19:02:18.768192,1.00271982,.0002707,5.1558,42.7387,38.2720,279.8694,0,U,28628,999,7758,0,.47E-6,0
DIRECTV 8,2005-019A,2026-06-08T15:07:37.100064,1.00271578,.0002963,0.0177,6.4882,74.8027,283.5844,0,U,28659,999,7698,0,.17E-6,0
GALAXY 28 (G-28),2005-022A,2026-06-08T18:23:16.744128,1.00272427,.0002827,3.2779,79.0339,354.2539,72.5774,0,U,28702,999,5189,0,-.184E-5,0
THAICOM 4,2005-028A,2026-06-08T19:05:02.935104,1.00270022,.0001877,0.2227,86.0312,350.1273,226.7892,0,U,28786,999,5216,0,-.346E-5,0
ANIK F1R,2005-036A,2026-06-08T16:17:43.876320,1.00272538,.0004292,4.2899,76.6849,5.1172,312.4243,0,U,28868,999,4636,0,-.6E-6,0
SYRACUSE 3A,2005-041B,2026-06-08T18:44:14.983872,1.00271289,.0003106,4.6223,75.9400,339.9806,168.9397,0,U,28885,999,7566,0,.145E-5,0
INMARSAT 4-F2,2005-044A,2026-06-08T14:03:53.151840,1.00272240,.0003033,5.0825,43.7036,34.3540,173.3775,0,U,28899,999,7543,0,-.246E-5,0
METEOSAT-9 (MSG-2),2005-049B,2026-06-08T18:44:00.008160,1.00268863,.00017,9.3415,54.2486,350.9221,178.6781,0,U,28912,999,691,0,.137E-5,0
EUTELSAT 174A,2005-052A,2026-06-08T14:12:31.847328,1.00269812,.0006359,4.1968,76.6319,1.4418,206.0255,0,U,28924,999,5224,0,.24E-6,0
ECHOSTAR 10,2006-003A,2026-06-08T16:16:51.460032,1.00271359,.0002023,0.0176,359.3201,46.3609,345.4254,0,U,28935,999,7437,0,-.39E-6,0
SPAINSAT,2006-007A,2026-06-08T08:53:53.070432,1.00272417,.0004897,0.5393,86.6919,349.4500,283.9215,0,U,28945,999,7413,0,-.201E-5,0
JCSAT-5A,2006-010A,2026-06-08T19:08:32.600256,1.00269731,.0002079,1.0867,84.3166,12.0947,219.9478,0,U,29045,999,7368,0,-.311E-5,0
ASTRA 1KR,2006-012A,2026-06-08T16:53:43.318176,1.00272552,.0003493,0.4509,83.2046,352.9476,93.3683,0,U,29055,999,4561,0,.135E-5,0
